KUIPER-00136            
1 65962U 25228R   26005.50002314 -.01616442  00000+0 -13428+0 0  9997
2 65962  51.8923 268.8182 0004931 136.6789 337.6622 15.01583394  3685
KUIPER-00137            
1 65963U 25228S   26005.50002314 -.00578195  00000+0 -36661-1 0  9995
2 65963  51.8959 267.4398 0004887 130.5663  44.4728 15.10911377  4219
KUIPER-00138            
1 65964U 25228T   26005.50002314 -.01097416  00000+0 -53210-1 0  9998
2 65964  51.8879 266.5740 0008160 120.2985 110.5593 15.21112286  5662
KUIPER-00140            
1 65965U 25228U   26005.50002314 -.00729753  00000+0 -46983-1 0  9993
2 65965  51.8918 267.7394 0006365 109.7768 206.8192 15.10527400  4648
KUIPER-00141            
1 65966U 25228V   26005.50002314 -.00713197  00000+0 -29411-1 0  9996
2 65966  51.8812 265.8811 0002900 145.8891  31.2966 15.25856517  5194
KUIPER-00146            
1 65967U 25228W   26005.50002314 -.01654109  00000+0 -83837-1 0  9997
2 65967  51.8865 266.5213 0005792 125.3559  90.2016 15.19917311  5681
KUIPER-00149            
1 65968U 25228X   26005.44824419 -.00049778  00000+0 -13984-2 0  9995
2 65968  51.8781 265.9640 0005861 105.5705 254.5928 15.35946342 14069
KUIPER-00154            
1 65969U 25228Y   26005.12801062  .00058867  00000+0  16152-2 0  9997
2 65969  51.8791 267.5661 0006656  87.5426 272.6323 15.36680598 14018
